BEIDOU-3 M25 (C47)      
1 61186U 24168B   26074.16761419 -.00000018  00000+0  00000+0 0  9995
2 61186  54.5564 305.5111 0004130 319.4254 183.3874  1.86230237 10035
BEIDOU-3 M27 (C49)      
1 61187U 24168C   26072.41641809 -.00000027  00000+0  00000+0 0  9992
2 61187  54.5535 305.5552 0002951  22.0693 161.6517  1.86230457  7477
